STARLINK-5577           
1 55751U 23028L   26068.86151139  .00000480  00000+0  48002-4 0  9993
2 55751  69.9992 244.1117 0002156 271.7261  88.3651 14.98327635166067
TOMORROW-S7             
1 63631U 25081B   26068.64931870  .00002135  00000+0  19093-3 0  9990
2 63631  45.3909 132.5570 0000463 121.9907 238.1016 14.99242141 48231
